IRIDIUM 136             
1 42962U 17061H   23325.79720033  .00000417  00000+0  14169-3 0  9999
2 42962  86.3988  57.4061 0001829 100.5829 259.5573 14.34222548320337
